$$SOE
2461295.500000000, A.D. 2026-Sep-12 00:00:00.0000, -1.819129565404367E+08, -3.657008028918307E+08, -8.495789461055234E+06,
2461302.500000000, A.D. 2026-Sep-19 00:00:00.0000, -1.710496642757626E+08, -3.695361389619722E+08, -8.605052404379159E+06,
2461309.500000000, A.D. 2026-Sep-26 00:00:00.0000, -1.600634810199558E+08, -3.731059965388001E+08, -8.708132523923010E+06,
2461316.500000000, A.D. 2026-Oct-03 00:00:00.0000, -1.489612693502622E+08, -3.764054096132429E+08, -8.804899596795410E+06,
2461323.500000000, A.D. 2026-Oct-10 00:00:00.0000, -1.377501318114538E+08, -3.794295995630230E+08, -8.895227546142071E+06,
2461330.500000000, A.D. 2026-Oct-17 00:00:00.0000, -1.264374063397467E+08, -3.821739889115525E+08, -8.978994775137872E+06,
2461337.500000000, A.D. 2026-Oct-24 00:00:00.0000, -1.150306608016223E+08, -3.846342151933899E+08, -9.056084510376930E+06,
2461344.500000000, A.D. 2026-Oct-31 00:00:00.0000, -1.035376865273469E+08, -3.868061449296909E+08, -9.126385167523354E+06,
2461351.500000000, A.D. 2026-Nov-07 00:00:00.0000, -9.196649048371430E+07, -3.886858875722706E+08, -9.189790762436748E+06,
2461358.500000000, A.D. 2026-Nov-14 00:00:00.0000, -8.032528587403090E+07, -3.902698084579383E+08, -9.246201311709553E+06,
2461365.500000000, A.D. 2026-Nov-21 00:00:00.0000, -6.862248297159143E+07, -3.915545400165809E+08, -9.295522998661429E+06,
2461372.500000000, A.D. 2026-Nov-28 00:00:00.0000, -5.686668118453377E+07, -3.925369941634542E+08, -9.337668257047057E+06,
2461379.500000000, A.D. 2026-Dec-05 00:00:00.0000, -4.506665873861355E+07, -3.932143764546671E+08, -9.372556156092376E+06,
2461386.500000000, A.D. 2026-Dec-12 00:00:00.0000, -3.323135982721105E+07, -3.935841988180375E+08, -9.400112845592171E+06,
2461393.500000000, A.D. 2026-Dec-19 00:00:00.0000, -2.136988113795101E+07, -3.936442907747245E+08, -9.420271885179073E+06,
2461400.500000000, A.D. 2026-Dec-26 00:00:00.0000, -9.491457927826092E+06, -3.933928099410341E+08, -9.432974513404667E+06,
2461407.500000000, A.D. 2027-Jan-02 00:00:00.0000, 2.394550591744600E+06, -3.928282519234743E+08, -9.438169895386159E+06,
2461414.500000000, A.D. 2027-Jan-09 00:00:00.0000, 1.427867663189948E+07, -3.919494595106063E+08, -9.435815356101900E+06,
2461421.500000000, A.D. 2027-Jan-16 00:00:00.0000, 2.615135994847514E+07, -3.907556310795303E+08, -9.425876600072175E+06,
2461428.500000000, A.D. 2027-Jan-23 00:00:00.0000, 3.800296469577872E+07, -3.892463281880904E+08, -9.408327923236161E+06,
2461435.500000000, A.D. 2027-Jan-30 00:00:00.0000, 4.982379713245597E+07, -3.874214823376701E+08, -9.383152436547756E+06,
2461442.500000000, A.D. 2027-Feb-06 00:00:00.0000, 6.160412452943797E+07, -3.852814005090987E+08, -9.350342310927361E+06,
2461449.500000000, A.D. 2027-Feb-13 00:00:00.0000, 7.333419473833214E+07, -3.828267681999279E+08, -9.309898900312155E+06,
2461456.500000000, A.D. 2027-Feb-20 00:00:00.0000, 8.500425396967050E+07, -3.800586507071586E+08, -9.261832589550138E+06,
2461463.500000000, A.D. 2027-Feb-27 00:00:00.0000, 9.660456408684999E+07, -3.769784958286446E+08, -9.206162757067800E+06,
2461470.500000000, A.D. 2027-Mar-06 00:00:00.0000, 1.081254223411300E+08, -3.735881360306451E+08, -9.142917971468598E+06,
2461477.500000000, A.D. 2027-Mar-13 00:00:00.0000, 1.195571818509113E+08, -3.698897880127010E+08, -9.072136107308462E+06,
2461484.500000000, A.D. 2027-Mar-20 00:00:00.0000, 1.308902715959824E+08, -3.658860504936779E+08, -8.993864344270602E+06,
2461491.500000000, A.D. 2027-Mar-27 00:00:00.0000, 1.421152160265570E+08, -3.615799007656597E+08, -8.908159112857446E+06,
2461498.500000000, A.D. 2027-Apr-03 00:00:00.0000, 1.532226543861012E+08, -3.569746900694555E+08, -8.815086008974820E+06,
2461505.500000000, A.D. 2027-Apr-10 00:00:00.0000, 1.642033597049192E+08, -3.520741377817124E+08, -8.714719681258097E+06,
2461512.500000000, A.D. 2027-Apr-17 00:00:00.0000, 1.750482573849955E+08, -3.468823244476483E+08, -8.607143694897398E+06,
2461519.500000000, A.D. 2027-Apr-24 00:00:00.0000, 1.857484433599992E+08, -3.414036837503600E+08, -8.492450385349482E+06,
2461526.500000000, A.D. 2027-May-01 00:00:00.0000, 1.962952020418696E+08, -3.356429934308454E+08, -8.370740728387833E+06,
2461533.500000000, A.D. 2027-May-08 00:00:00.0000, 2.066800242775948E+08, -3.296053644662318E+08, -8.242124194698006E+06,
2461540.500000000, A.D. 2027-May-15 00:00:00.0000, 2.168946237375015E+08, -3.232962276183680E+08, -8.106718374951452E+06,
2461547.500000000, A.D. 2027-May-22 00:00:00.0000, 2.269309500921227E+08, -3.167213200138972E+08, -7.964648445063815E+06,
2461554.500000000, A.D. 2027-May-29 00:00:00.0000, 2.367812022614072E+08, -3.098866732963598E+08, -7.816046901010826E+06,
2461561.500000000, A.D. 2027-Jun-05 00:00:00.0000, 2.464378425584678E+08, -3.027986002969829E+08, -7.661053390077084E+06,
2461568.500000000, A.D. 2027-Jun-12 00:00:00.0000, 2.558936096660865E+08, -2.954636798765103E+08, -7.499814420853287E+06,
2461575.500000000, A.D. 2027-Jun-19 00:00:00.0000, 2.651415300688916E+08, -2.878887409606765E+08, -7.332482999881476E+06,
2461582.500000000, A.D. 2027-Jun-26 00:00:00.0000, 2.741749281834878E+08, -2.800808461210100E+08, -7.159218243866876E+06,
2461589.500000000, A.D. 2027-Jul-03 00:00:00.0000, 2.829874352905943E+08, -2.720472747853596E+08, -6.980184980865508E+06,
2461596.500000000, A.D. 2027-Jul-10 00:00:00.0000, 2.915729972866266E+08, -2.637955061635420E+08, -6.795553345114037E+06,
2461603.500000000, A.D. 2027-Jul-17 00:00:00.0000, 2.999258812797143E+08, -2.553332020210269E+08, -6.605498374079347E+06,
2461610.500000000, A.D. 2027-Jul-24 00:00:00.0000, 3.080406811834775E+08, -2.466681894557110E+08, -6.410199629353344E+06,
2461617.500000000, A.D. 2027-Jul-31 00:00:00.0000, 3.159123227265558E+08, -2.378084435325673E+08, -6.209840861901939E+06,
2461624.500000000, A.D. 2027-Aug-07 00:00:00.0000, 3.235360676932381E+08, -2.287620687144536E+08, -6.004609610894546E+06,
2461631.500000000, A.D. 2027-Aug-14 00:00:00.0000, 3.309075151158535E+08, -2.195372794309327E+08, -5.794696547525063E+06,
2461638.500000000, A.D. 2027-Aug-21 00:00:00.0000, 3.380226000622553E+08, -2.101423832311764E+08, -5.580294897503272E+06,
2461645.500000000, A.D. 2027-Aug-28 00:00:00.0000, 3.448775934813973E+08, -2.005857653918893E+08, -5.361600160634786E+06,
2461652.500000000, A.D. 2027-Sep-04 00:00:00.0000, 3.514691019666740E+08, -1.908758725479444E+08, -5.138809816546291E+06,
2461659.500000000, A.D. 2027-Sep-11 00:00:00.0000, 3.577940660887880E+08, -1.810211960730547E+08, -4.912122944457196E+06,
2461666.500000000, A.D. 2027-Sep-18 00:00:00.0000, 3.638497574829770E+08, -1.710302559213730E+08, -4.681739824166931E+06,
2461673.500000000, A.D. 2027-Sep-25 00:00:00.0000, 3.696337749749701E+08, -1.609115850628142E+08, -4.447861547326416E+06,
2461680.500000000, A.D. 2027-Oct-02 00:00:00.0000, 3.751440398791450E+08, -1.506737145341416E+08, -4.210689645205125E+06,
2461687.500000000, A.D. 2027-Oct-09 00:00:00.0000, 3.803787905516062E+08, -1.403251591541853E+08, -3.970425736777887E+06,
2461694.500000000, A.D. 2027-Oct-16 00:00:00.0000, 3.853365763221651E+08, -1.298744039959079E+08, -3.727271208664365E+06,
2461701.500000000, A.D. 2027-Oct-23 00:00:00.0000, 3.900162511252498E+08, -1.193298916518786E+08, -3.481426952382661E+06,
2461708.500000000, A.D. 2027-Oct-30 00:00:00.0000, 3.944169672650635E+08, -1.087000097057406E+08, -3.233093144290976E+06,
2461715.500000000, A.D. 2027-Nov-06 00:00:00.0000, 3.985381682154958E+08, -9.799307729890767E+07, -2.982468869682044E+06,
2461722.500000000, A.D. 2027-Nov-13 00:00:00.0000, 4.023795785335250E+08, -8.721733288375884E+07, -2.729751578868095E+06,
2461729.500000000, A.D. 2027-Nov-20 00:00:00.0000, 4.059411938466598E+08, -7.638092535860234E+07, -2.475136820524961E+06,
2461736.500000000, A.D. 2027-Nov-27 00:00:00.0000, 4.092232725885922E+08, -6.549190562177958E+07, -2.218818158643283E+06,
2461743.500000000, A.D. 2027-Dec-04 00:00:00.0000, 4.122263275169112E+08, -5.455821762875951E+07, -1.960987012712650E+06,
2461750.500000000, A.D. 2027-Dec-11 00:00:00.0000, 4.149511165179433E+08, -4.358768991118558E+07, -1.701832449210355E+06,
2461757.500000000, A.D. 2027-Dec-18 00:00:00.0000, 4.173986330257701E+08, -3.258802788877127E+07, -1.441540977080943E+06,
2461764.500000000, A.D. 2027-Dec-25 00:00:00.0000, 4.195700962553640E+08, -2.156680696458825E+07, -1.180296361077787E+06,
2461771.500000000, A.D. 2028-Jan-01 00:00:00.0000, 4.214669413351220E+08, -1.053146637374644E+07, -9.182794553210093E+05,
$$EOE